OBJECT C                
1 57582U 23117C   24198.15048594  .00009378  00000+0  48387-3 0  9990
2 57582  97.4856 269.8217 0010857 186.1993 173.9108 15.16501523 51577
